STARLINK-2266_new
1 17997C 21024W   21326.14567292  .00002725  00000-0  18252-3 0  3266
2 17997  53.0548 153.0901 0002318  82.3995 307.8379 15.06404973    19
STARLINK-2266_old
1 27997C 21024W   21325.15052860  .00003251  00000-0  21778-3 0  3257
2 27997  53.0543 157.5575 0002310  80.7362 309.7964 15.06399994    19
